{"fetched_at":"2026-03-29T16:36:15Z","count":15609,"tles":[{"name":"STARLINK-34816","line1":"1 65467U 25195K   26087.92182354  .00010788  00000+0  37586-3 0  9992","line2":"2 65467  53.1591 169.1733 0001634  81.3874 278.7311 15.30197521 32939","category":"Starlink"}]}