{
  "norad_id": 65467,
  "name": "STARLINK-34816",
  "history": [
    {
      "epoch": "2026-03-28T22:07:25.553856Z",
      "apogee_km": 476.3423102140805,
      "perigee_km": 474.1026323388678,
      "latitude_deg": -6.393051053282761e-05,
      "longitude_deg": 10.981451291282594,
      "height_km": 475.95228071887504,
      "semi_major_axis_km": 6853.359471276474,
      "eccentricity": 0.0001634,
      "inclination_deg": 53.1591,
      "raan_deg": 169.1733,
      "arg_perigee_deg": 81.3874,
      "mean_anomaly_deg": 278.7311,
      "mean_motion_rev_day": 15.30197521
    }
  ]
}